[{"OBJECT_NAME":"UTMN 2 (RS27S)","OBJECT_ID":"2023-091AP","EPOCH":"2026-03-09T23:09:07.917408","MEAN_MOTION":15.29495965,"ECCENTRICITY":0.00097379,"INCLINATION":97.5194,"RA_OF_ASC_NODE":134.949,"ARG_OF_PERICENTER":76.0788,"MEAN_ANOMALY":284.1534,"EPHEMERIS_TYPE":0,"CLASSIFICATION_TYPE":"U","NORAD_CAT_ID":57203,"ELEMENT_SET_NO":999,"REV_AT_EPOCH":14936,"BSTAR":0.00056135701,"MEAN_MOTION_DOT":0.00016013,"MEAN_MOTION_DDOT":0},{"OBJECT_NAME":"STARLINK-31959","OBJECT_ID":"2024-106D","EPOCH":"2026-03-09T09:51:39.794400","MEAN_MOTION":15.27564146,"ECCENTRICITY":5.563e-5,"INCLINATION":43.0019,"RA_OF_ASC_NODE":330.2606,"ARG_OF_PERICENTER":12.705,"MEAN_ANOMALY":347.3816,"EPHEMERIS_TYPE":0,"CLASSIFICATION_TYPE":"U","NORAD_CAT_ID":59925,"ELEMENT_SET_NO":999,"REV_AT_EPOCH":10052,"BSTAR":-4.0088203e-5,"MEAN_MOTION_DOT":-1.364e-5,"MEAN_MOTION_DDOT":0}]
